EUTELSAT 53A            
1 40277U 14064A   26155.93202562  .00000110  00000+0  00000+0 0  9993
2 40277   0.0151 293.0970 0000715 231.0870 117.7174  1.00272132 41442
GSAT-16                 
1 40332U 14078A   26155.93245897  .00000097  00000+0  00000+0 0  9992
2 40332   0.0601  94.3495 0007915 349.6090 200.1738  1.00271261 41981
DIRECTV 14              
1 40333U 14078B   26155.90187812 -.00000113  00000+0  00000+0 0  9992
2 40333   0.0095 324.1263 0000255 199.1564 315.5074  1.00272349 41926
YAMAL 401               
1 40345U 14082A   26155.85829630  .00000000  00000+0  00000+0 0  9999
2 40345   0.0139 329.6605 0000052 147.4649 175.1158  1.00272023 41790
ASTRA 2G                
1 40364U 14089A   26155.92709243  .00000162  00000+0  00000+0 0  9991
2 40364   0.0478   4.8825 0005191  53.9054 196.5366  1.00269807 41843
FENGYUN 2G              
1 40367U 14090A   26154.80052208 -.00000292  00000+0  00000+0 0  9999
2 40367   5.6052  72.9774 0003440 153.7233  53.2439  1.00279146 41866
MUOS-3                  
1 40374U 15002A   26155.91851240 -.00000117  00000+0  00000+0 0  9993
2 40374   4.4981  43.4719 0051505 178.7115 346.3994  1.00272256 41468
INMARSAT 5-F2           
1 40384U 15005A   26155.48289815 -.00000273  00000+0  00000+0 0  9995
2 40384   0.0181 349.5743 0000640 195.3976 186.7891  1.00273154 40867
ABS-3A                  
1 40424U 15010A   26155.63582852 -.00000015  00000+0  00000+0 0  9994
2 40424   0.0206  68.2195 0001996 318.0086  92.7592  1.00270386 41259
EUTELSAT 115 WEST B     
1 40425U 15010B   26155.61527439 -.00000012  00000+0  00000+0 0  9990
2 40425   0.0091 147.2790 0000634 161.7662  50.6136  1.00265549 41265
EXPRESS-AM7             
1 40505U 15012A   26155.75217831  .00000163  00000+0  00000+0 0  9994
2 40505   0.0148  16.5432 0003328  63.2240 124.2009  1.00272368 40880
BEIDOU-3S IGSO-1S       
1 40549U 15019A   26155.86761368 -.00000162  00000+0  00000+0 0  9990
2 40549  49.2196 295.6097 0038519 191.1841 171.3273  1.00253760 40950
THOR 7                  
1 40613U 15022A   26155.92145907  .00000004  00000+0  00000+0 0  9992
2 40613   0.0072 327.7035 0002780 104.2340 152.5045  1.00272416 40697
TURKMENALEM52E/MONACOSAT
1 40617U 15023A   26155.93185229  .00000116  00000+0  00000+0 0  9993
2 40617   0.0419  79.6861 0003150 352.1249 209.0391  1.00272105 40721
DIRECTV 15              
1 40663U 15026A   26155.90118479 -.00000090  00000+0  00000+0 0  9999
2 40663   0.0174   7.1745 0000154 277.0348 190.6666  1.00272269 40342
SKY MEXICO-1            
1 40664U 15026B   26155.90595147 -.00000222  00000+0  00000+0 0  9998
2 40664   0.0166   2.2519 0002337  86.4964  51.9409  1.00272506 40337
METEOSAT-11 (MSG-4)     
1 40732U 15034A   26155.92336575  .00000075  00000+0  00000+0 0  9998
2 40732   3.1717  71.1773 0001643   4.0834 159.8803  1.00276481  7095
STAR ONE C4             
1 40733U 15034B   26155.69505478 -.00000253  00000+0  00000+0 0  9992
2 40733   0.0210 346.4517 0002607  80.0103   6.9016  1.00270772 39885
WGS F7 (USA 263)        
1 40746U 15036A   26155.72267252  .00000030  00000+0  00000+0 0  9999
2 40746   0.0027 357.1446 0000154 343.1865 347.9774  1.00271153 39746
INTELSAT 34 (IS-34)     
1 40874U 15039A   26155.91054483 -.00000273  00000+0  00000+0 0  9995
2 40874   0.0092 325.9423 0000275  62.8751 136.8315  1.00269697 39512
EUTELSAT 8 WEST B       
1 40875U 15039B   26155.91998574 -.00000053  00000+0  00000+0 0  9990
2 40875   0.0642 348.2503 0003859  82.5578 145.7544  1.00272149 39539
GSAT-6                  
1 40880U 15041A   26155.93791899 -.00000148  00000+0  00000+0 0  9997
2 40880   1.8887  82.7398 0003364 347.1101 243.6983  1.00272002 39476
INMARSAT 5-F3           
1 40882U 15042A   26155.81456078  .00000063  00000+0  00000+0 0  9999
2 40882   0.0176 351.7702 0000538  72.7135 301.6498  1.00271621 39445
MUOS-4                  
1 40887U 15044A   26155.78123182 -.00000082  00000+0  00000+0 0  9991
2 40887   4.3064  42.1642 0059731   4.6354 202.6979  1.00272519 39433
TJS-1                   
1 40892U 15046A   26155.88099137 -.00000143  00000+0  00000+0 0  9990
2 40892   0.2911  85.0085 0005922 352.7742 287.7391  1.00273335 39443
EXPRESS-AM8             
1 40895U 15048A   26155.91877241 -.00000099  00000+0  00000+0 0  9999
2 40895   0.0136 291.7864 0000190 146.5311 131.7986  1.00271836 39225
BEIDOU-3S IGSO-2S       
1 40938U 15053A   26155.76900253 -.00000132  00000+0  00000+0 0  9994
2 40938  49.2418 258.9308 0064952 192.1222 174.7728  1.00262689 39231
SKY MUSTER 1 (NBN1A)    
1 40940U 15054A   26155.72923215  .00000000  00000+0  00000+0 0  9990
2 40940   0.0228 337.7484 0001938 115.9253 202.2548  1.00270772 39139
ARSAT 2                 
1 40941U 15054B   26155.90551814 -.00000213  00000+0  00000+0 0  9990
2 40941   0.0396  64.1367 0002245 359.3684  74.8416  1.00271501 39184
MORELOS 3               
1 40946U 15056A   26155.89919145 -.00000032  00000+0  00000+0 0  9999
2 40946   3.1773  14.7548 0001777 350.5718  98.6114  1.00270892 39163
APSTAR-9                
1 40982U 15059A   26155.87839135 -.00000253  00000+0  00000+0 0  9995
2 40982   0.0162 336.5701 0002094 200.8058 174.1857  1.00271833 38994
TURKSAT 4B              
1 40984U 15060A   26155.89534926  .00000126  00000+0  00000+0 0  9999
2 40984   0.0175 333.8944 0002420 100.1118 191.6808  1.00275622 38979
