OBJECT_NAME,OBJECT_ID,EPOCH,MEAN_MOTION,ECCENTRICITY,INCLINATION,RA_OF_ASC_NODE,ARG_OF_PERICENTER,MEAN_ANOMALY,EPHEMERIS_TYPE,CLASSIFICATION_TYPE,NORAD_CAT_ID,ELEMENT_SET_NO,REV_AT_EPOCH,BSTAR,MEAN_MOTION_DOT,MEAN_MOTION_DDOT
EUTELSAT 53A,2014-064A,2026-06-04T22:22:07.013568,1.00272132,.00007153,0.0151,293.0970,231.0870,117.7174,0,U,40277,999,4144,0,.11E-5,0
GSAT-16,2014-078A,2026-06-04T22:22:44.455008,1.00271261,.00079157,0.0601,94.3495,349.6090,200.1738,0,U,40332,999,4198,0,.97E-6,0
DIRECTV 14,2014-078B,2026-06-04T21:38:42.269568,1.00272349,.00002556,0.0095,324.1263,199.1564,315.5074,0,U,40333,999,4192,0,-.113E-5,0
YAMAL 401,2014-082A,2026-06-04T20:35:56.800320,1.00272023,.00000521,0.0139,329.6605,147.4649,175.1158,0,U,40345,999,4179,0,0,0
ASTRA 2G,2014-089A,2026-06-04T22:15:00.785952,1.00269807,.0005191,0.0478,4.8825,53.9054,196.5366,0,U,40364,999,4184,0,.162E-5,0
FENGYUN 2G,2014-090A,2026-06-03T19:12:45.107712,1.00279146,.00034407,5.6052,72.9774,153.7233,53.2439,0,U,40367,999,4186,0,-.292E-5,0
MUOS-3,2015-002A,2026-06-04T22:02:39.471360,1.00272256,.00515052,4.4981,43.4719,178.7115,346.3994,0,U,40374,999,4146,0,-.117E-5,0
INMARSAT 5-F2,2015-005A,2026-06-04T11:35:22.400160,1.00273154,.000064,0.0181,349.5743,195.3976,186.7891,0,U,40384,999,4086,0,-.273E-5,0
ABS-3A,2015-010A,2026-06-04T15:15:35.584128,1.00270386,.00019962,0.0206,68.2195,318.0086,92.7592,0,U,40424,999,4125,0,-.15E-6,0
EUTELSAT 115 WEST B,2015-010B,2026-06-04T14:45:59.707296,1.00265549,.00006344,0.0091,147.2790,161.7662,50.6136,0,U,40425,999,4126,0,-.12E-6,0
EXPRESS-AM7,2015-012A,2026-06-04T18:03:08.205984,1.00272368,.00033286,0.0148,16.5432,63.2240,124.2009,0,U,40505,999,4088,0,.163E-5,0
BEIDOU-3S IGSO-1S,2015-019A,2026-06-04T20:49:21.821952,1.00253760,.00385195,49.2196,295.6097,191.1841,171.3273,0,U,40549,999,4095,0,-.162E-5,0
THOR 7,2015-022A,2026-06-04T22:06:54.063648,1.00272416,.00027808,0.0072,327.7035,104.2340,152.5045,0,U,40613,999,4069,0,.4E-7,0
TURKMENALEM52E/MONACOSAT,2015-023A,2026-06-04T22:21:52.037856,1.00272105,.00031506,0.0419,79.6861,352.1249,209.0391,0,U,40617,999,4072,0,.116E-5,0
DIRECTV 15,2015-026A,2026-06-04T21:37:42.365856,1.00272269,.00001544,0.0174,7.1745,277.0348,190.6666,0,U,40663,999,4034,0,-.9E-6,0
SKY MEXICO-1,2015-026B,2026-06-04T21:44:34.207008,1.00272506,.00023374,0.0166,2.2519,86.4964,51.9409,0,U,40664,999,4033,0,-.222E-5,0
METEOSAT-11 (MSG-4),2015-034A,2026-06-04T22:09:38.800800,1.00276481,.00016434,3.1717,71.1773,4.0834,159.8803,0,U,40732,999,709,0,.75E-6,0
STAR ONE C4,2015-034B,2026-06-04T16:40:52.732992,1.00270772,.00026076,0.0210,346.4517,80.0103,6.9016,0,U,40733,999,3988,0,-.253E-5,0
WGS F7 (USA 263),2015-036A,2026-06-04T17:20:38.905728,1.00271153,.00001549,0.0027,357.1446,343.1865,347.9774,0,U,40746,999,3974,0,.3E-6,0
INTELSAT 34 (IS-34),2015-039A,2026-06-04T21:51:11.073312,1.00269697,.00002757,0.0092,325.9423,62.8751,136.8315,0,U,40874,999,3951,0,-.273E-5,0
EUTELSAT 8 WEST B,2015-039B,2026-06-04T22:04:46.767936,1.00272149,.0003859,0.0642,348.2503,82.5578,145.7544,0,U,40875,999,3953,0,-.53E-6,0
GSAT-6,2015-041A,2026-06-04T22:30:36.200736,1.00272002,.00033644,1.8887,82.7398,347.1101,243.6983,0,U,40880,999,3947,0,-.148E-5,0
INMARSAT 5-F3,2015-042A,2026-06-04T19:32:58.051392,1.00271621,.00005389,0.0176,351.7702,72.7135,301.6498,0,U,40882,999,3944,0,.63E-6,0
MUOS-4,2015-044A,2026-06-04T18:44:58.429248,1.00272519,.00597318,4.3064,42.1642,4.6354,202.6979,0,U,40887,999,3943,0,-.82E-6,0
TJS-1,2015-046A,2026-06-04T21:08:37.654368,1.00273335,.00059227,0.2911,85.0085,352.7742,287.7391,0,U,40892,999,3944,0,-.143E-5,0
EXPRESS-AM8,2015-048A,2026-06-04T22:03:01.936224,1.00271836,.00001906,0.0136,291.7864,146.5311,131.7986,0,U,40895,999,3922,0,-.99E-6,0
BEIDOU-3S IGSO-2S,2015-053A,2026-06-04T18:27:21.818592,1.00262689,.00649525,49.2418,258.9308,192.1222,174.7728,0,U,40938,999,3923,0,-.132E-5,0
SKY MUSTER 1 (NBN1A),2015-054A,2026-06-04T17:30:05.657760,1.00270772,.00019387,0.0228,337.7484,115.9253,202.2548,0,U,40940,999,3913,0,0,0
ARSAT 2,2015-054B,2026-06-04T21:43:56.767296,1.00271501,.0002245,0.0396,64.1367,359.3684,74.8416,0,U,40941,999,3918,0,-.213E-5,0
MORELOS 3,2015-056A,2026-06-04T21:34:50.141280,1.00270892,.0001777,3.1773,14.7548,350.5718,98.6114,0,U,40946,999,3916,0,-.32E-6,0
APSTAR-9,2015-059A,2026-06-04T21:04:53.012640,1.00271833,.00020948,0.0162,336.5701,200.8058,174.1857,0,U,40982,999,3899,0,-.253E-5,0
TURKSAT 4B,2015-060A,2026-06-04T21:29:18.176064,1.00275622,.00024207,0.0175,333.8944,100.1118,191.6808,0,U,40984,999,3897,0,.126E-5,0
